name,address,city,state,postal_code,phone,email,website,description,latitude,longitude
"Nido (Privato) e Casa dei bambini ""Fondazione Pirani Cremona"" (Paritaria)",Via Gobbi 8,Bassano del Grappa,Vicenza,36161,0424522415,segreteria@fondazionepiranicremona.it,https://www.fondazionepiranicremona.org,,45.7593111,11.7352132
"Scuola primaria ""Ai Caduti"" (Statale)",Via Spalto Don Minzoni 2,Rovato,Brescia,25038,030/7721457,BSIC843007@istruzione.it,https://www.icdonmilani-rovato.it,"Dipende da I.C. &quot;Don L. Milani&quot; Via Solferino, 45 - 25038 Rovato (BS)",45.5672612,9.996825699999999
Scuola primaria Plesso di Monterotondo (Statale),Via L. Cadorna 46,Monterotondo fraz. di Passirano,Brescia,25050 ,030 653129,segreteria@icpassirano.edu.it,https://icpassirano.edu.it/,Dipende da IC di Passirano,45.60764959999999,10.0415255
"""Datemi Tempo"" (Privato) - Servizio socio educativo di Agri Tata",Fraz. Letey 5,Gressan,Aosta,11020,3311802065,ideainmovimento@gmail.com,https://www.montessorinvalle.it,"Per bambini da 3 mesi a 3 anni.<br>Servizio accreditato con la Regione Autonoma Valle d’Aosta",45.7214451,7.289893899999999
Api Operose Spazio gioco (Privato),Via Augusto Vera 32,Roma,RM,00142,3276756968,nidoleapioperose@gmail.com,https://www.leapioperose.com,,41.8448492,12.487537
Asilo infantile del centro - Fondazione scuole dell'infanzia paritarie Enti Morali,Via Staffoli 5,Gussago,Brescia,25064,0302773761,segreteriafondazione.emg@gmail.com,https://www.asiligussago.it,,45.5843944,10.1493362
"Asilo nido ""La Magnolia"" (Privata)",Via Daniele Ricciarelli 8,Milano,Milano,20148,0248750145,info@nidomagnolia.it,https://www.nidomagnolia.it/wp-magnolia/,,45.4727707,9.1430194
"Asilo Nido ""Terraluna"" (Privata)",Via Cascina Vega 4,Usmate Velate,Monza e Brianza,20865,393 870 5031,,,,45.6501261,9.3429671
"Asilo Nido ""Terraluna"" (Privata)",Via De Marchi 18,Monza,Monza e Brianza,20900,377 027 2818,,,,45.5931921,9.2934877
"Asilo nido Arcobaleno ""Renilde Stoppani Montessori"" (Comunale)",Via Alfieri 24,Monte San Vito,Ancona,60037,071948973,,,,43.5947821,13.2966805
Asilo nido comunale Rosa Louise Parks - la madre dei diritti civili (comunale),"Via Allende, 1",Villamassargia,Sud Sardegna (SU),09010,3284204039,nidocomunalerosaparks@gmail.com,,,39.2723834,8.6432887
Asilo Nido di Locate di Triulzi - La Fabbrica delle Coccole (privata),Via Orlando Cattaneo 5,Locate di Triulzi,MI,,3275391125,lafabbricadellecoccolenido@gmail.com,,,45.401884183688175,9.235031221014369
Asilo nido I tre pastorelli di Fatima,Strada provinciale 79,Ordona,Foggia,71040,885330265,asilounsorrisopertutti@gmail.com,https://www.coperativaunsorrisopertutti.org,,41.3173065,15.6292731
Asilo nido l'Arcobalocco (Privato),Via Acquaregna 90,Tivoli,RM,00019,07741731816,larcobalocco@libero.it,,,41.9571721,12.8036424
"Asilo Nido Montessori ""S. Lucia"" (Privata)",Via dei Tigli 7,Rieti,Rieti,02100,0746201220,montessori.s.lucia@gmail.com,,,42.402463,12.8556432
"Casa dei bambini ""M. Virgillito"" - Suore Domenicane Beata Imelda (Paritaria)",Piazza Ferravilla 2,Milano,Milano,20129,0270124912,bambini.virgillito@casadeibambinivirgillito.com,https://www.casadeibambinivirgillito.com,,45.4707733,9.2227511
"Casa dei bambini ""Antonio e Maria Bianchi"" (Comunale)",Via Stazione 86,Calcinato Frazione di Ponte San Marco,Brescia,25010,0309636534,infanziabianchi@comune.calcinato.bs.it,,,45.4731516,10.4111882
"Casa dei bambini ""Campedello"" (Statale)",Via Gian Maria Bertolo 92,Vicenza,Vicenza,36100,0444533730,VIIC871005@istruzione.it,https://www.istitutocomprensivo1vicenza.it,"Dipende da Istituto Comprensivo Vicenza 1<br>Contrà Burci, 20 - 36100 Vicenza ",45.5270285,11.560483
"Casa dei bambini ""D. Cariolato"" (Statale)",Strada Bertesina 353,Vicenza,Vicenza,36100,0444504424,VIIC872001@istruzione.it,https://www.ic2bortoan.it,"Dipende da: Istituto Comprensivo n.2 &quot;Bortolan&quot; -  Via C. Piovene, 31 - 36100 Vicenza",45.5454787,11.5354214
"Casa dei Bambini ""E. Pestalozzi"" (Statale)",Via Simpatica,Perugia,Perugia,06128,0755055983,PGIC85900A@istruzione.it,https://www.istitutocomprensivoperugia11.it,"Dipende da: Istituto Comprensivo Perugia 11<br>Via Cotani - 06128 Perugia",43.1026207,12.3729039
"Casa dei bambini ""Evelina Cundari"" - dipende da I.C. Via Roma - Spirito Santo (Statale)",Via Spirito Santo 1,Cosenza,Cosenza,87100,098426572,csic81200c@istruzione.it,https://www.icspiritosanto.gov.it,,39.2865517,16.2618276
"Casa dei bambini ""Giacomo Costa"" - VI Circolo Didattico ""Medaglie d'Oro"" (Statale)",Via Giacomo Costa 4,Salerno,SA,84126,089792660,saic8b500q@istruzione.it,https://www.icmedagliedoro.edu.it/,,40.686226,14.7734901
"Casa dei bambini ""I Rondinotti"" - 28° Circolo Comunale (Comunale)",Via L. Rizzo 2,Napoli,Napoli,80125,0817623003,infanzia.rondinotti.@comune.napoli.it,,,40.8166164,14.1882335
"Casa dei bambini ""Il Sassolino"" (Paritaria)",Via A. Bagozzi 14/F,Gavardo,Brescia,25085,0365374726,,,,45.5940377,10.480127
"Casa dei bambini ""Isabella"" (Paritaria)",Via Don Giovan Maria Pennacchio 7,Gorzone di Darfo Boario Terme,Brescia,25047,0364/531180,scuolamaternaisabella@gmail.com,,,45.8896319,10.166502
"Casa dei bambini ""Maria Montessori"" (Comunale - Paritaria)",Piazzale Michelangelo,Mantova,Mantova,46100,0376323648,materna.montessori@comune.mantova.gov.it,,,45.1539068,10.775374
"Casa dei bambini ""Maria Montessori"" (Comunale)", Via Parma 5,Bolzano,Bolzano,39100,0471910293,casadeibambini@comune.bolzano.it,,,46.4982953,11.3547582
"Casa dei bambini ""Montessori"" (Statale)",Via Nolana,Pompei,Napoli,80045,0818506209,naee220002@istruzione.it,https://www.pompeisecondocircolo.edu.it,,40.7579091,14.4965643
"Casa dei bambini ""Montessori"" (Statale)",Via Capitano Verri,Trapani,Trapani,91100,092329201,TPEE00400P@istruzione.it,https://www.guglielmomarconi.gov.it,"Dipende da IV Circolo Didattico &quot;G. Marconi&quot;<br>Via 11 settembre 2001 91100 Trapani",38.0188402,12.535834
"Casa dei bambini ""Montessori"" - I.C. ""Regina Elena"" (Statale)",Via Puglie 6,Roma,Roma,00187,0642819809,RMIC819001@istruzione.it,https://www.icreginaelena.it,,41.9100936,12.4951397
"Casa dei bambini ""Orti di Spagna"" (Comunale)",Via Lega Veronese 8/a,Verona,Verona,37123,045596650,infanzia.ortidispagna@comune.verona.it,https://www.comune.verona.it,,45.4450357,10.9756869
"Casa dei bambini ""P. F. Calvi"" (Comunale - Paritaria)",Strada Formigosa 72,Mantova,Mantova,46100,0376302191,materna.calvi@comune.mantova.gov.it,,,45.1218102,10.8620755
"Casa dei bambini ""Parrocchia Sacra Famiglia"" (Paritaria)",Via Recchi 6,Ferrara,Ferrara,44123,0532767412,casadeibambinife@virgilio.it,,,44.8270804,11.6094514
"Casa dei bambini ""Plesso Murelle"" (Statale)",Via Murelle 4,Mugnano di Napoli,Napoli,80018,0815710410,naee15100r@istruzione.it,https://www.cdsequino.edu.it/,dipende dal 1° Circolo Didattico “G. Sequino”,40.9096006,14.2034899
"Casa dei bambini ""Plesso S. Giovanni"" (Statale)",Via C. Colombo 5,Mugnano di Napoli,Napoli,80018,0815710410,naee15100r@istruzione.it,https://www.cdsequino.gov.it,dipende dal 1° Circolo Didattico “G. Sequino”,40.9130393,14.209711
"Casa dei bambini ""S. Maria dei Miracoli"" (Paritaria)",Via Cannaregio,Venezia,Venezia,6073,0415223252,casadeibambini.ve@libero.it,https://www.casadeibambini.ve.it,,45.4408474,12.3155151
"Casa dei bambini ""San Giusto"" (Paritaria)",Via Monte S. Gabriele 34,Trieste,Trieste,34127,040573060,amministrazione@montessori.trieste.it,,,45.6587044,13.7865663
"Casa dei bambini ""The International School of Naples"" (Privata)",Viale della Liberazione 1,Napoli,Napoli,80125,0817628429,info@isnaples.it,https://www.isnaples.it,,40.8209077,14.1613904
Casa dei Bambini (Privata) Progetto di Fattoria Sociale,Fraz. Letey 5,Gressan,Aosta,11020,,ideainmovimento@gmail.it,https://www.montessorinvalle.it,,45.7214451,7.289893899999999
"Casa dei bambini (STATALE) ""A. Manzoni""",Via Dell&#039;Acacia,Perugia,Perugia,06129,0755052534,PGEE00300C@istruzione.it,https://www.terzocircoloperugia.it,Dipende da: Direzione Didattica Statale - 3° Circolo - Via Palestrina - 06124 Perugia,43.0766125,12.3635701
"Casa dei bambini (STATALE) ""M. A. Paolini""",Via Vittorio Alfieri,Perugia,Perugia,06126,07533752,PGEE00300C@istruzione.it,https://www.terzocircoloperugia.it,Dipende da: Direzione Didattica Statale - 3° Circolo - Via Palestrina - 06124 Perugia,43.08241049999999,12.3979431
"Casa dei bambini (STATALE) ""M. Montessori""","Via Fonti Coperte, 38/N",Perugia,Perugia,06124,07533739,PGEE00300C@istruzione.it,https://www.terzocircoloperugia.it,Dipende da: Direzione Didattica Statale - 3° Circolo - Via Palestrina - 06124 Perugia,43.1074675,12.3764587
"Casa dei bambini (STATALE) ""Villaggio Kennedy""",Via Cotani 1,Perugia,Perugia,06128,0755054604,PGEE00200L@istruzione.it,https://www.secondocircolopg.gov.it,"Dipende da:  Direzione Didattica II Circolo - Via Magno Magnini, 11 - 06127 Perugia",43.0978117,12.3664341
Casa dei bambini (STATALE) - II circolo didattico Garibaldi,Via Ofanto 21,Altamura,Bari,20022,080342066,baee04500b@istruzione.it,https://www.garibaldialtamura.edu.it,,40.8319671,16.5588214
Casa dei Bambini (Statale) e Primaria Rodari (Statale),V. F.lli Cervi ,Segrate/MI2,,20090,0226411001,MIIC8BK00L@istruzione.it,https://www.icsabin.edu.it,Dipende da: Istituto Comprensivo “A.B. Sabin” V. F.lli Cervi -20090 Segrate/MI2 (MI),45.491059,9.261759999999999
Casa dei bambini (STATALE) plesso di Scuola dell'infanzia di Valtesino di di Ripatransone,Borgo la Vigna,Ripatransone,Ascoli Piceno,63065,07359234,APIC804003@istruzione.it,https://iscripatransone.it/,"Dipende da: I.S.C. &quot;Ripatransone&quot;<br>Via da Sole, 1 – 63065 Ripatransone (AP)",42.9773292,13.7800369
Casa dei bambini (Statale) Primaria (Statale) Montessori - Istituto Comprensivo Bruno da Osimo,Via Santa Lucia 10,Osimo,Ancona,60027,0717131569,ANIC843003@istruzione.it,https://www.brunodaosimo.org,,43.486236,13.48661
Casa dei bambini (Statale) Primaria (Statale) Montessori A. Scocchera,Via XXV Aprile,Castelfidardo,Ancona,60022,0717366027,ANIC83100R@istruzione.it,https://icsoprani.gov.it/,Dipende da: I.C. &quot;Soprani&quot;,43.4660241,13.5566459
Casa dei bambini (Statale) Primaria (Statale) Montessori plesso Tofare,Via Sassari,Ascoli Piceno,Ascoli Piceno,63100,073641764,APIC82900B@istruzione.it,https://www.isclucianiap.gov.it/,"Dipende da: I.S.C. &quot;Luciani SS. Filippo e Giacomo&quot;<br>Via 3 Ottobre 8/C – 63100 Ascoli Piceno (AP)",42.8477155,13.5984354
Casa dei bambini (Statale) Primaria (Statale) plesso Scapezzano Montessori,Via A. Da Brescia,Senigallia,Ancona,60019,071660400,ANIC848006@istruzione.it,https://www.senigallianord.it,Dipende da Istituto Comprensivo Senigallia Nord Mercantini,43.7202411,13.1674581
Casa dei bambini (Statale) Scuola dell'infanzia plesso Peter Pan, Via Toscana,Porto Sant&#039;Elpidio,Fermo,63821,0734992287,APIC83600E@istruzione.it,https://www.isc1pse.gov.it,"Dipende da: Istituto Comprensivo Statale &quot;Rita Levi Montalcini&quot;<br>Via Fontanella, 2 - 63821 Porto Sant&#039;Elpidio (FM)",43.267085,13.7508058
Casa dei bambini (STATALE) Scuola Primaria (Statale) Montessori plesso Alfortville - Via Alfortville - 63074,Via Alfortville,San Benedetto del Tronto,Ascoli Piceno,63074,0735650237,APIC83400V@istruzione.it,https://www.iscsud.gov.it,"Dipende da: I.S.C. Sud San Benedetto del Tronto<br>P.zza Setti Carraro, 5 – 63074 San Benedetto del Tronto (AP)",42.910438,13.8898907
Casa dei Bambini (Statale) Scuola Primaria (Statale) Montessori Sandro Pertini,Via C.A. Vecchi,Pagliare del Tronto-Spinetoli,Ascoli Piceno,63078,0717366027,APIC80600P@istruzione.it,https://iscspinetoli.it/,"Dipende da: I.S.C. &quot;Spinetoli-Pagliare&quot;<br>Via Giovanni XXIII, 13 – 63078 Pagliare del Tronto-Spinetoli (AP)",42.86772939999999,13.7698839
Casa dei bambini (Statale) “G. Santucci”,Via Pian della Genna 16,Perugia,Perugia,06128,0755010290,PGEE00200L@istruzione.it,https://www.secondocircolopg.gov.it,"Dipende da:  Direzione Didattica II Circolo - Via Magno Magnini, 11 - 06127 Perugia",43.10156569999999,12.3652258
"Casa dei bambini (Statale)Via Leonardo da Vinci, 10 – 20099",Via Leonardo da Vinci 10,Sesto San Giovanni,Milano,20099,023658331,MIIC8EU00Q@istruzione.it,https://www.icbredasesto.gov.it,"Dipende da: Istituto Comprensivo E. Breda<br>Via Podgora, 161 – 20099 Sesto San Giovanni (MI)",45.5416383,9.2337689
"Casa dei bambini - Direzione Didattica 1° Circolo ""Leonardo da Vinci"" (Statale)",Via San Pietro 54,Trapani,Trapani,91100,092326980,TPEE001007@istruzione.it,https://www.cdleonardodavinci.gov.it  ,,38.0173505,12.5365171
"Casa dei bambini - I.C. ""G. G. Ciaccio Montalto"" (Statale)",Via Tunisi 37,Trapani,Trapani,91100,092320398,TPIC836004@istruzione.it,https://www.icciacciomontalto.it,,38.0254467,12.5257247
"Casa dei bambini - I.C. ""Italo Calvino"" (Statale)",Via Bologna 57,Villaricca,Napoli,80010,0818181685,naic885001@istruzione.it,https://www.calvinovillaricca.edu.it/,,40.9110386,14.129085
"Casa dei bambini - I.C. ""Polo 2"" (Statale)",Via Capuana,Casarano,Lecce,73042,0833502884,leic860006@istruzione.it,https://www.casaranopolo2.gov.it ,"Dipende da: Istituto Comprensivo Polo 2 - Distretto 46, Via Messina 2,  73042 Casarano (LE)",40.0113573,18.1614311
"Casa dei bambini - I.C. ""Rita Levi Montalcini"" - plesso Casa dei bambini (Statale)",Via Casalis,Torino,Torino,10138,,TOIC88300Q@istruzione.it,,,45.074369,7.658093
"Casa dei bambini - I.C. ""U. Betti"" (Statale)",Via A. Mario ,Fermo,Fermo,63900,0734224726,,https://www.iscbettifermo.gov.it,,43.1554427,13.7306502
Casa dei bambini - I.C. Borgosatollo (Statale),Via Roma 42,Borgosatollo,Brescia,25010,0302501557,bsic84600p@istruzione.it,https://istitutocomprensivoborgosatollo.gov.it,,45.4764941,10.2380721
Casa dei Bambini - I.C. Tullio De Mauro (Statale),Viale Santi 65,Roma,Roma,00155,0645437721,RMIC8B5008@istruzione.it,https://www.rmicviasanti65.gov.it,,41.91333780000001,12.5668705
Casa dei bambini - I.C. Via P. A. Micheli (Statale),Via P. A. Micheli 21,Roma,Roma,00197,063221302,RMIC8D8001@istruzione.it,https://www.istitutocomprensivoviamicheli.edu.it/,,41.9225117,12.4824739
Casa dei bambini - I.C. “G. Catalano – G. Moscati” (Statale),Via M. Altamura,Foggia,Foggia,71122,0881746552,FGIC86200B@istruzione.it,htpps://www.iccatalanomoscati.it,,41.4655543,15.5297641
"Casa dei bambini - plesso ""C. Ferrini"" (Statale)",Via di Villa Chigi 22,Roma,Roma,00199,068600694,RMIC8EB00L@istruzione.it,https://www.scuolasinopoli.it,Dipende da: Ist. Comprensivo &quot;Via Mascagni&quot;,41.93207590000001,12.5139169
"Casa dei bambini - plesso ""Chiovini"" (Statale)",Via Zinardini 6,Roma,Roma,00139,0687131853,RMIC8EG00Q@istruzione.it,https://www.filattiera84.gov.it,Dipende da: Istituto Comprensivo &quot;Piazza Filattiera 84&quot;,41.9623802,12.5227769
"Casa dei bambini - plesso ""Francesco Crispi"" (Statale)",Via Anton Giulio Barrili 13,Roma,Roma,00152,065810022,RMIC8FT003@istruzione.it,https://www.iclargooriani.it,Dipende da: Istituto Comprensivo &quot;Largo Oriani&quot;,41.8770083,12.4602704
"Casa dei bambini - plesso ""Gianni Rodari"" (Statale)",Via Emilia,Matera,Matera,75100,0835333201,mtic82500p@istruzione.it,https://www.ictorracamatera.it,,40.6743506,16.6011858
"Casa dei bambini - plesso ""Lorenzo Cuneo"" (Statale)",Via Cerveteri 55,Roma,Roma,00183,0677209575,RMIC8GE009@istruzione.it,https://www.istitutocomprensivoceneda.it,Dipende da: Istituto Comprensivo &quot;Ceneda&quot;,41.8795238,12.5082935
"Casa dei bambini - plesso ""Via dei Marsi"" (Statale)",Via dei Marsi 58,Roma,Roma,00185,06 4453968 sez. A 39 0695061252 sez B,viadeimarsi58@libero.it,https://www.viicircolomontessori.it/,Dipende da: IC Montessori - Maria Clotilde Pini,41.8957644,12.5147521
Casa dei bambini - plesso di Via A. Guglielmi (Statale),Via A. Guglielmi,Foggia,Foggia,71100,0881631353,FGEE00800R@istruzione.it,https://www.scuolasanpiox.it,Dipende da: Direzione Didattica Statale 8° Circolo &quot;S. Pio X&quot; Via V. Mastelloni - 71100 Foggia,41.4532336,15.529825
Casa dei bambini - plesso Via dei Mille (Statale),Via dei Mille 44,Civitanova Marche,Macerata, 62012,0733772163,MCIC83600N@istruzione.it,https://www.iscviaugobassi.gov.it,Dipende da: Istituto Comprensivo “Via Ugo Bassi”,43.2987197,13.7221594
Casa dei bambini A. Caregaro Negrin dipende da IC Zanella (statale),Via Aldo Moro 53,Sandrigo,Vicenza,36066,0444659089,scuola.negrin@iczanella.net,https://iczanellasandrigo.edu.it/,,45.6592011,11.6029356
"Casa dei bambini bilingue ""Montessori International School"" (Privata)",Via del Molino 93,Campoformido,Udine,33030,3312818210,michela.crismani@ghirigoro.it,https://www.asilonidoudine.it/scuola-materna.html,,46.025309,13.2090896
"Casa dei bambini bilingue con sezione primavera ""La Casa di Titto"" (Privata)",Via Verdi 25,Cinisello Balsamo,Milano,,3396652955,lacasadititto@yahoo.com,https://www.lacasadititto.com,,45.5510882,9.223973899999999
"Casa dei bambini e Nido ""Anghingò"" (Privata e comunale)",Via Appia Nuova 889,Roma,Roma,00178,067182415,asiloanghingo@gmail.com,,,41.8435292,12.5523533
"Casa dei bambini e Primaria ""Angelo Mauri"" (Statale)",Via Angelo Mauri 5,Roma,Roma,00139,068104305,RMIC8B400C@istruzione.it,http://ospitiweb.indire.it/icbrunomunari/index.htm,Dipende da: Istituto Comprensivo &quot;Bruno Munari&quot;,41.9505609,12.520168
"Casa dei bambini e Primaria ""Assisi International School"" (Statale)",Via Cristoforo Cecci 2C,Assisi,Perugia,06081,0759471123,ais@fondazionepatriziopaoletti.org,https://www.assisinternationalschool.org/,,43.0707017,12.6195966
"Casa dei bambini e Primaria ""Elena Guerra"" (Paritaria)",Via Silvestro II 22,Roma,Roma,00167,3345963952,simonaq2004@yahoo.it,,,41.9060132,12.4228916
"Casa dei bambini e Primaria ""Montessori"" (Statale)",Via S. Martino 41,Sanremo,Imperia,18038,0184591379,IMIC81700E@istruzione.it,https://www.comprensivolevante.com,Dipende da: I.C. Sanremo Levante,43.8226587,7.7939778
"Casa dei bambini e Primaria ""Scuola Montessori"" (Paritaria)",Piazza San Gerolamo 6,MIlano, Milano,20133,022822754,segreteria@scuolamontessorimilano.it,https://www.scuolamontessorimilano.it,,45.46929009999999,9.2366274
Casa dei bambini e Primaria (Statale),Via Piermarini ,Foligno,Perugia,06034,0742350418 ,pgic86000e@istruzione.it,https://www.icfoligno2.it,"Dipende da: Istituto Comprensivo Statale &quot;G. Carducci&quot;<br>Via Dei Molini, 1 - 06034 Foligno (PG)",42.9547094,12.7065593
Casa dei bambini e Primaria (Statale),Via XX Settembre 57,Terni,Terni,05100,0744273932,TREE00400X@istruzione.it,htpts://www.dd.sangiovanni.it,"Dipende da: Direzione Didattica “San Giovanni”<br>Via Liutprando, 32 – 05100 Terni",42.5636168,12.6426604
"Casa dei bambini e Primaria (Statale) I.S.C. ""Nord""", Via Gino Moretti 79,San Benedetto del Tronto,Ascoli Piceno,63074,0735592458,apic83300@istruzione.it,https://www.iscnord.gov.it  ,,42.9492736,13.8822558
Casa dei bambini e Primaria - Fondazione Scuola Montessori di Bergamo (Paritaria),Via Giangiuseppe Brembilla 6,Bergamo,Bergamo,24129,035242486,info@scuolamontessoribg.it,http://www.scuolamontessoribg.it,,45.6905513,9.6315236
"Casa dei bambini e Primaria - I. C. ""Leonardo Sinisgalli"" (Statale)",Via Anzio snc,Potenza,Potenza,85100,0971411793,pzic87900x@istruzione.it,https://www.icsinisgallipz.gov.it   ,,40.6414923,15.7925358
"Casa dei bambini e Primaria - I.C. ""Viale Adriatico"" (Statale)",Viale Adriatico 140,Roma,Roma,00141,0687188349,RMIC813002@istruzione.it,https://www.ic-vialeadriatico.edu.it,,41.9421071,12.5370614
"Casa dei bambini e Primaria - IC ""Giovan Battista Valente"" (Statale)",Viale G.B.Valente 100,Roma,Roma,00177,062596165,RMIC82300L@istruzione.it,,,41.8975883,12.5680814
Casa dei bambini e primaria - IC Rende Commenda (statale),Via Caduti di Nassirya,Rende,Cosenza,87036,0984463930,csic8ak00c@istruzione.it,https://www.icrendecommenda.it,,39.3288901,16.24032
"Casa dei bambini e Primaria - plesso Montessori - IX Circolo ""Manzoni"" (Statale)",Via Nannarone 21,Foggia,Foggia,71100,0881776672,FGEE00900L@istruzione.it,httsps://www.scuolamanzoni.it,,41.4532336,15.529825
Casa dei bambini e Primaria - plesso Via Monte Ruggero (Statale),Via Monte Ruggero 39,Roma,Roma,00139,068180420,RMIC813002@istruzione.it,https://www.icvialeadriatico.gov.it,Dipende da: Istituto Comprensivo &quot;Viale Adriatico&quot;,41.9470753,12.5310268
"Casa dei bambini e Primaria - plesso “Flaminia Guidi"" (Statale)",Via Lemonia 242,Roma,Roma,00174,0671582362,RMIC8GG001@istruzione.it,https://icparcodegliacquedotti.edu.it/,Dipende da: I.C. “Parco degli Acquedotti&quot;,41.8493243,12.5613123
Casa dei bambini e Primaria di Via Sturzo (Statale),Via Don Sturzo,Cornaredo,Milano,20010,0293263511,MIIC8FK00P@istruzione.it,https://ww.icsviadavinci.gov.it,"Dipende da: Istituto Comprensivo Statale<br>Via L. Da Vinci, 34 - Cornaredo (MI)",45.4923008,9.034109
Casa dei Bambini e Primaria Direzione Didattica Statale 4° Circolo (Statale),Via Cantobelli,Lecce,Lecce,73100,0832342937,LEEE00400X@istruzione.it,https://www.4circololecce.gov.it,,40.3515155,18.1750161
Casa dei bambini e Primaria I.C. di San Donato - plesso “Fabrizio De Andrè” (Pubblica) Via Artiglieria 1,Via Artiglieria 1,Sassari,Sassari,07100,0792012057,ssic85200n@istruzione.it,https://www.icsandonato.gov.it,,40.7259269,8.5556826
Casa dei bambini e Primaria Montessori (Paritaria),Via Bartolini 46,Milano,Milano,20155,0233000723,info@scuolamontessori.com,https://www.scuolamontessori.com,,45.4920959,9.152779899999999
Casa dei bambini e Primaria Montessori (Paritaria),Via Arosio 3,Milano,Milano,20148,024045694,info@montessori-milano.it,https://www.montessori-milano.it,,45.47323919999999,9.1252579
"Casa dei Bambini e Primaria Montessori - I.C. ""San Nilo"" (Statale) - Plesso R. di Feo",Via G. Quattrucci,Grottaferrata (RM),Roma,00046,069454091,info@icsannilo.gov.it,https://www.icsannilo.gov.it,,41.7821344,12.6877276
Casa dei bambini e Primaria Montessori - Scuola Montessori Bilingue di Milano,Via Palmieri 72 ,Milano,Milano,20141,0249530147,segreteria@montessoribilingue.it,https://www.montessoribilingue.it,,45.434756,9.184931599999999
"Casa dei bambini e Primaria Montessori “E. Fermi” (Statale) – Istituto comprensivo “E.Fermi” Via Pace, 2",Via Pace 2,Macerata,Macerata,62100, 0733236611,MCIC82700V@istruzione.it,https://www.fermimc.edu.it,"Dipende da: Istituto Comprensivo “Enrico Fermi” Via Pace, 2 – 62100  Macerata",43.3022524,13.4597118
"Casa dei bambini e Primaria plesso ""Borgo Rosselli"" (Statale)",Via Petrarca 129,Porto San Giorgio,Fermo,63822,0734679008 ,APIC82300C@istruzione.it,https://www.iscnardi.gov.it/,"Dipende da: I.S.C. &quot;Nardi&quot; Viale dei Pini, 49 – 63822 Porto San Giorgio (FM)",43.1677449,13.8012952
"Casa dei bambini e Primaria plesso ""Villa Paganini"" (Statale)",L.go di Villa Paganini 18,Roma,Roma,00198,06 8416793,plessovillapaganini@gmail.com,https://www.viicircolomontessori.it/,Dipende da: IC Montessori - Maria Clotilde Pini,41.9160629,12.5083304
Casa dei bambini e Primaria Scuola Montessori Milano srl (Parificata),Via Milazzo 7/9 ,Milano,Milano,20121,0229001762,amministrazione@milanomontessori.it,,,45.4790324,9.1868698
Casa dei bambini e Primaria “Montessori” c/o Complesso Monumentale di S. Pietro (Statale),Piazza S.Pietro,Gubbio,Perugia,06024,0759274600,PGEE03700G@istruzione.it,https://www.secondocircologubbio.it,"Dipende da: II Circolo Didattico “Aldo Moro”<br>Via Magellano, 06024 GUBBIO (Pg)",43.3513193,12.5753166
Casa dei bambini Fondazione Scuola Materna e Asilo nido Rovato Centro (Paritaria),Via IV Novembre 5,Rovato,Brescia,25038,0307721107,rovatocentro@email.it,,,45.5673817,10.003558
"Casa dei bambini Fratte Rosa, dipende da I.C. ""Binotti"" (Statale)",Via Borgo Torre 67,Torre San Marco di Fratte Rosa,Pesaro Urbino,61040, 0721777373,PSIC83400E@istruzione.it,https://www.icbinottipergola.it,,43.6464128,12.9077768
Casa dei bambini GiosaMente APS (Privata),"Strada Statale per Reggio, 40",Correggio,Reggio Emilia,42015,3755747052,info.gioiosamente@gmail.com,https://www.montessoricorreggio.it/,,44.751122,10.7433219
Casa dei bambini IC Pasquale Tola (Statale),"Via Washington, 1",Sassari,,07100,0792845254,ssic855005@istruzione.it,https://www.icpasqualetolass.it,,40.7109287,8.5534932
Casa dei bambini Istituto Canonico Latorre Scuola dell'infanzia Cuore di Gesù (Statale),Via Nazionale dei Trulli 109,Fasano,BR,72015,3201728674,bree02200r@istruzione.it,https://www.collodifasano.edu.it,Dipende da 1° Circolo didattico &quot;C. Collodi&quot; ,40.8329292,17.355964
Casa dei Bambini Le Coccinelle,Via Timavo 11,Verona,VR,37129,0458007177,vric88900p@istruzione.it,https://www.ic18vr.edu.it,Dipendenti da Istituto Comprensivo 18 Veronetta - Porto di Verona ,45.43745089999999,11.0033514
Casa dei bambini Maria Montessori (Statale),Via dei Bersaglieri 68,Urgnano,Bergamo,24059,035/891154,bgic8aa007@istruzione.it,https://icurgnano.edu.it/,Dipende da: IC &quot;B. Colleoni&quot; -  Via dei Bersaglieri 68 – 24059 Urgnano (BG),45.6010148,9.687646500000001
Casa dei Bambini Montessori (Statale),Via Tommasi 40,Ancona,Ancona,60123,07131794,ANIC81100G@istruzione.it,https://www.augustoscocchera.it,Dipende da: Istituto Comprensivo &quot;Augusto Scocchera&quot;,43.6161954,13.5277857
Casa dei bambini Montessori (Statale),Via S. Andrea,Chiaravalle,Ancona,60033,071949142,anic85200T@istruzione.it,https://www.icmontessoriano.it,Dipende da Istituto Comprensivo &quot;Maria Montessori&quot;,43.6067566,13.3086508
"Casa dei bambini Montessori - I.C. ""Falcone e Borsellino"" (Statale)",Via Reggio Calabria 34,Roma,Roma,00162,06442336136,RMIC804007@istruzione.it,https://www.falconeborsellino.it,Dipende da: Istituto Comprensivo &quot;Falcone e Borsellino&quot;,41.91225499999999,12.5193613
Casa dei Bambini Montessori - Zelig Sociale Soc. Coop. Sociale ONLUS (Paritaria),Passeggio Calamandrei 2,Siena,Siena,53100,0577601949,bacconi@zeligsociale.it,https://www.zeligsociale.it,,43.3445393,11.3234929
Casa dei bambini Montessori di Via Livenza (Statale),Via Livenza 8,Roma,Roma,00198,0685354906,RMIC8BL001@istruzione.it,https://www.alfierilantedellarovere.it,Dipende da:  Istituto Comprensivo Statale &quot;Alfieri-Lante della Rovere&quot;,41.9133216,12.4954206
Casa dei Bambini Plesso Pizzigoni (Statale),"Via Cappuccini, ang. via Podgora",Brindisi,BR,72100,0831584908,bric81500g@istruzione.it,https://www.iccappuccinibrindisi.edu.it,Dipende da IC Cappuccini Brindisi,40.6337247,17.9255552
Casa dei bambini plesso “Tofare”,Via Colle Gioioso 2,Monteprandone,Ascoli Piceno,63076,0735702474,apic82800g@istruzione.it,https://www.icmonteprandone.gov.it/,Dipende da: I.C. &quot;Monteprandone&quot;,42.9047212,13.8486186
Casa dei bambini Sacra famiglia (Paritaria),Via Piave 11,"Corticelle Pieve, Dello ",Brescia,25020,0308089232,sacrafamigliamontessori@gmail.com,https://www.facebook.com/sacrafamigliacorticelle/,,45.4234302,10.1228097
"Casa dei bambini Scuola dell'infanzia plesso ""Aladino"" (Statale)",Via Fontanella 2,Porto Sant&#039;Elpidio,FM,63821,0734992287,APIC83600E@istruzione.it,http://www.isc1pse.gov.it,,45.50622720835721,9.117972286031202
Casa dei bambini Scuola dell'infanzia plesso Aladino,Via Fontanella 2,Porto Sant&#039;Elpidio ,Fermo,63821,0734992287,APIC83600E@istruzione.it,https://www.isc1pse.gov.it,"Dipende da: I.C. “Rita Levi Montalcini”<br>Via Fontanella, 2 - 63821 Porto Sant&#039;Elpidio (FM)",43.2564397,13.7578362
Casa dei bambini “Carducci” (Comunale),Via Dante 5/2,Bologna,Bologna,40136,051340264,scuolainfanziacarducci@comune.bologna.it,https://www.comune.bologna.it/luoghi/scuola-infanzia-carducci,,44.4869997,11.3552283
Casa dei bambini “M. Montessori” (Privata),Via Marconi 1,Porto Recanati,Macerata,62017,3936789230,casadeibambini@montessori-portorecanati.it,https://www.montessori-portorecanati.it,,43.4226365,13.6536376
Casa dei bambini “Piccolo Seme” (Progetto Culturale Condiviso),Via Don Cesare Bizzarri 1 Parma,Parma,Parma,43126,3273554663,unvillaggiopercrescere@gmail.com,https://www.unvilllaggiopercrescere.it,Associazione Un Villaggio per Crescere ,44.7992662,10.2855393
Casa dei bambini “Viale dei Gemelli” (Statale),Via Pigna 27,Giugliano di Campania,Napoli,80014,0818958351,naee346003@istruzione.it,http://www.quintocircologiugliano.edu.it,Dipende dal V Circolo Didattico &quot;Maria Montessori&quot;,40.93299409999999,14.1746536
"Casa dei bambini, Primaria Montessori ""Anna Frank”, Scuola Secondaria di 1° grado (Statale)",Via Friuli 18,Cinisello Balsamo,Milano,20092,0266047583,miic82500q@istruzione.it,https://www.isc-paganelli.gov.it ,"Casa dei bambini all’interno della scuola dell’infanzia &quot;Sardegna pallino blu&quot;<br>Dipende da I.S.C. Balilla Paganelli, Via Friuli, 18 – 20092 Cinisello Balsamo (MI)",45.5502075,9.2351279
"Casa dei bambini, Primaria, Scuola secondaria di 1° grado - I.C. ""Via G. Messina"" (Statale)",Via G. Messina 51,Roma,Roma,00173,067210164,RMIC839006@istruzione.it,https://www.icviagmessina.gov.it,,41.8591597,12.5760166
Casa dei bambini- (Statale) - Plesso scuola dell'infanzia l'Aquilone di Castelferretti,Via Marconi 10,Falconara Marittima,Ancona,60015,071910576,anic82400n@istruzione.it,https://www.istitutocomprensivoraffaellosanzio.gov.it,Dipende da Istituto Comprensivo Statale Raffaello Sanzio,43.6220339,13.3702811
"Centro per l' infanzia ""La carica dei 101"" (privato)","Via Benedetto Croce, 35",Macerata,Macerata,62100,3474091157 - 0733261346,info@lacaricadei101.net,https://infanzia101.webnode.it/,0-36 mesi,43.30896,13.46205
"Educazione primaria bilingue Montessori Farm ""Flaminia Guidi"" (Privata)",Largo Città dei Ragazzi 1,Roma,Roma,00163,3388186606,info@montessoriinpratica.it,,,41.8448936,12.3577608
Ghirigoro Il nido dei bimbi (Privata),Via Lavariano 4,Udine,Udine,33100,3938958623,michela.crismani@ghirigoro.it,https://www.asilonidoudine.it,,46.0418725,13.2533345
I.C. Marconi Sacchetti Sassetti (Statale),Piazza Mazzini 7,Rieti,Rieti,02100,0746201195,RIIC822006@istruzione.it,https://www.icmarconisacchettisassetti.it,,42.4044391,12.8628756
IC ''Centro storico Pestalozzi'' Plesso Vittorio Veneto - Scuola Primaria (Statale),Via della Colonna 1,Firenze,Firenze,50121,0552341337,fiic839003@istruzione.it,htpps://www.centrostoricopestalozzi.edu.it,,43.7740775,11.2660313
IC di Montegrotto Terme Primaria (Statale),Via Claudiana 5,Montegrotto Terme,PD,35036,049793487,pdic866008@istruzione.it,https://www.icmontegrotto.edu.it/,,45.3326217,11.7855055
IC Maria Montessori (Statale),Via Vittorio Veneto 273,Alcamo,TP,91011,092421906,tpic81100q@istruzione.it,https://www.icmariamontessori.edu.it,,37.9753646,12.9632802
"IC Montessori - Maria Clotilde Pini - Casa dei bambini, Primaria e Secondaria di primo grado (Statale)",Via S. Maria Goretti 41,Roma,Roma,00199,0686208392,rmic8g900l@istruzione.it,https://www.viicircolomontessori.it/,,41.931494,12.5204246
IC Pergine 2 C. Freinet (Statale),Via Amstetten 4,Pergine Valsugana,TN,38057,0461512312,fir.freinet@scuole.provincia.tn.it,https://www.pergine2.it,,46.066099890817526,11.229774198179864
IC Rovereto Est (Statale),Corso Rosmini 86,Rovereto,Trento,38068,04644333709,segr.ic.roveretoest@scuole.provincia.tn.it,https://www.roveretoest.it,,45.887471716044175,11.040219436775946
IC Vicchio (STATALE),Viale Beato angelico 28,Vicchio,Firenze,50039 ,055844254,fiic81500e@istruzione.it,https://www.icvicchio.edu.it,,43.9880395,11.5020752
Il Nido Blu - Cooperativa Sociale San Saturnino (Privata),Via Tevere 40,Roma,Roma,00198,3458103115,ilnidoblu@coopsansaturnino.org,,,41.9128111,12.4965352
Istituto Comprensivo San Lucido (Statale),Via Strada 1,San Lucido,Cosenza,87038,098281056,CSIC84100C@istruzione.it,,,39.3073241,16.0526257
Istituto Comprensivo Statale Luigi Pirandello (Statale),Via Nanterre,Pesaro,PU,,,cinzia.biagini@istruzione.it,,,43.89434881898304,12.898215716336455
Istituto Comprensivo “A.B. Sabin” (Statale),V. F.lli Cervi,Segrate,MI,20090,,MIIC8BK00L@istruzione.it,https://www.icsabin.gov.it,,45.49671622359614,9.267091146042814
Istituto Comprensivo “Rita Levi Montalcini”,Via Papa Giovanni XXIII 5,Montebelluna,,31044,042322284,tvic883004@istruzione.it,,,45.775491,12.0439904
"Lecce Micronido d'infanzia ""Oxford"" - Casa dei bambini ""Maria Montessori"" - Scuola Primaria Bilingue (Paritaria)",Via Adriatica 10,Lecce,Lecce,73100,0832390312,materna@oxfordiamo.com,https://www.oxfordgrouplecce.it/,,40.36309230000001,18.1698497
Loc. San Polo - Scuola primaria “Don Lorenzo Milani” (Statale),Via Poggio della Croce 31,Loc. San Polo Greve in Chianti,Firenze,50022,055855084,FIIC826001@istruzione.it,https://www.comprensivogreve.gov.it,"Dipende da: Istituto Comprensivo Statale di Greve in Chianti<br>V.le G. Da Verrazzano, 8 – 50022, Greve in Chianti (FI)",43.6708429,11.3604731
Micronido e Casa dei bambini - La margherita – La casa operosa (APS Montessori) (Privata),Via Amedeo Avogadro 60/62,Roma,Roma,00146,3470166768,info@lacasaoperosa.it,,"18-36 mesi - La Casa Operosa<br>3-6 anni - La Margherita",41.8665189,12.472118
Micronido Montessori (in convenzione con Roma Capitale),Via Nomentana 54,Roma,Roma,00161,0644235477,micronidomontessori@gmail.com,https://www.instagram.com/micronido_montessori_roma,,41.9131817,12.5074303
"Micronido Montessori bilingue ""I Cuccioli"" (Privato)",Via Crocera 17,Sesto Calende,Varese,21018,3475419701,info@micronidoicuccioli.it,,,45.74010519077164,8.599844682826072
Micronido Primi Sorrisi snc di Taverni Sena e Strada Domenica Paola,Via Roma 83,Pregnana Milanese,MI,20006,3204574807,primisorrisi@virgilio.it,https://www.nidoprimisorrisi.it/,,45.5160128,9.0084349
"Monteroni di Lecce Casa dei bambini - I.C. ""Polo 1"" (Statale)",Via Gramsci,Monteroni di Lecce,Lecce,73047,0832327084,LEIC84100R@istruzione.it,https://www.comprensivoprimopolomonteroni.gov.it,,40.3253351,18.1023315
Montessori Visco Primaria (Privata),Via Pietro Gioitti 15,Visco,Udine,33050,3929580689,arting.aps@gmail.com,,,45.8911817,13.3462483
"Nido ""InaBimbi"" di InaAssitalia - Generali (Privata)",Via Bissolati 23,Roma,Roma,00187,0642010500,nidoinabimbi@tiscali.it,,,41.905116,12.4867883
"Nido ""La casetta magica Srl"" (Privato)",Via Adolfo Consolini 30,Potenza,Potenza,85100,0971309290,casettamagicasrl@gmail.com,,,40.6575008,15.8015801
"Nido ""Le Capriole"" (Privata)",Via del Capitello 88,Trento,Trento,38123,3405632836,nidolecapriole@gmail.com,https://www.facebook.com/nidolecapriole2016,,46.0430714,11.1020432
Nido (Comunale), Via Donizetti 33,Chiaravalle,Ancona,60033,0717451547,,,,43.6019048,13.3186532
Nido (comunale) - Nidotondo,Via Vogel,Recanati,Macerata,62019,0717576037,asilonido@comune.recanati.mc.it,https://servizisociali@comune.recanati.mc.it,,43.3946856,13.5321234
"Nido (Comunale), Casa dei bambini e Primaria (Private) ""Scuola Internazionale Montessori Nerina Noè""",Via Viggiano 78,Roma,Roma,00178,065037101,info@montessorinternazionale.it,https://www.montessorinternazionale.it,,41.8330778,12.5412761
"Nido (Privata) Casa dei bambini e Primaria ""Giuseppe Bedetti"" (Paritaria)",Via Bignanico 4,Como,Como,22100,031571235,segreteria@montessori.co.it,https://www.montessori.co.it,Associazione Scuola Montessori,45.8220453,9.062653
"Nido (Privata) e Casa dei bambini (Paritaria) bilingue - Kindergarten ""Dragonetti""",Via Contrada Monte d&#039;Alba 10,Trani,Barletta Andria Trani,76125,3938939884,info@kindergartendragonetti.it,https://www.kindergartendragonetti.it,,41.2716137,16.4170395
Nido (Privata) e Casa dei bambini (Paritaria) Istituto Montessori Pozzuoli,Via Montenuovo 105D,Pozzuoli,Napoli,80072,0818042684,segreteria@montessoripozzuoli.it,https://www.montessoripozzuoli.it,,40.8464929,14.0709593
"Nido (Privata), Casa dei bambini e Primaria ""Paolina Poggi"" (Paritarie)",Via A. Moscatelli 284,Mentana,Roma,00013,069093244,scuolapaolinapoggi@tiscali.it,https://www.scuolapaolinapoggi.it,,42.0323743,12.6424255
Nido (Privato) - Oasis Mascherona,Salita di Mascherona 10R,Genova,Genova,16123,0102469009,mascherona.oasis@gmail.com,,,44.4056392,8.9306079
Nido (Privato) - Oasis Montebruno,Via Parini 21,Genova,Genova,16145 ,0103623852,montebruno.oasis@gmail.com,,,44.394841,8.9590806
Nido (Privato) e Casa dei bambini (Paritaria) - Complesso Scolastico Cardinal Ragonesi,Viale IV Novembre 23,Viterbo,Viterbo,01100,07611891380,info@cardinalragonesi.it,https://www.cardinalragonesi.it,,42.4177419,12.1134773
"Nido (Privato), Casa dei bambini e Primaria, Scuola Secondaria di 1° grado Maria Montessori (Paritarie)",Via Cantoni 6,Castellanza,Varese,21053,0331504640,info.montessori@acof.it,,,45.6097957,8.9004037
Nido Angolo Montessori (Privato),Via Lucrezia della Valle 102/1,Catanzaro,Catanzaro,88100,3396265274,angolomontessori@gmail.com,,,38.8961375,16.5928127
Nido Arca dei bimbi,Via L. Tenco 77,Osimo,Ancona,60027 ,0719307032c,,,,43.5154944,13.49982
Nido Centro infanzia Montessori (Privato),Via Falcone 6,San Donà di Piave,Venezia,30027,3465011601,info@micronidomontessori.it,,,45.630335,12.5660992
Nido Collefiorito,Via Tonnini 7,Osimo,Ancona,60027,0719307031,,,,43.4822565,13.4841206
Nido d’Infanzia: “Aquilone”,Via Salvatore Quasimodo 2,Falconara Marittima,AN,60015,0719188056,aquilone@virtuscoop.it,,,43.6024439,13.3636504
Nido d’Infanzia: “Aquilone”,Via Salvatore Quasimodo 2,Falconara Marittima,AN,60015,0719188056,aquilone@virtuscoop.it,,,43.6024439,13.3636504
"Nido e Casa dei bambini ""Il Girasole"" scuola bilingue italiano-LIS (Privata)",Via Macedonia 17,Roma,Roma,00179,067887152,info@nidogirasole.com,https://www.nidogirasole.com ,,41.8677293,12.5154628
"Nido e Casa dei bambini ""Mary Poppins"" (Privata)",Via San Giacomo 24,Carpi,Modena,41012,059654335,marypoppins@marypoppinscarpi.it,https://www.marypoppinscarpi.it,,44.7899463,10.8641895
Nido e casa dei bambini - Rainbow Playschool - Montessori Method in English (Privata),Via Europa 3D,Cercola,Napoli,80040,08118096773,info@rainbowplayschool.it,https://www.rainbowplayschool.it,,40.85590029999999,14.3499465
Nido e Casa dei bambini MOM - Montessori Montalto (Privata),Corso Italia 13,Montalto Uffugo,Cosenza,87046,0984406855,montaltomontessori@gmail.com,https://www.montessorimontalto.it,,39.4277586,16.2364249
Nido e Casa dei Bambini “A modo tuo” di Adrover M.,Via Monterosso 20,Gallarate,Varese,21013,3476861236,info@nidoamodotuo.it,https://www.nidoamodotuo.it,,45.6567715,8.7734839
Nido e Casa dei Bambini “G. e C. Moschini” SPES (Paritaria),Via C. Battisti 229,Padova,Padova,35129,049650549,info@spes.pd.it,https://www.spes.pd.it,,45.4046099,11.8832323
Nido e casa dei bambini “M. Montessori” – SPES (Paritaria),Via Tiepolo 85,Padova,Padova,35129,0498697743,info@spes.pd.it,https://www.spes.pd.it,,45.4068988,11.8959525
"Nido il girasole (Privato), Scuola materna La vittoria (Paritaria)",Via Olimpia 2,Provaglio d&#039;Iseo,BS,,030983195,referente.materna@scuolamaternalavittoria.com,,,45.74230045256664,10.019233602140913
Nido Marchi (Privato),Via Emilia Ovest 29,Parma,Parma,43126,0521981715,marchi@auroradomus.it,,Gestito da Aurora domus,44.8079487,10.3011946
"Nido Montessori ""Crescere Insieme"" (Privata)",Via di Montespaccato 26,Roma,Roma,00166,0645444672,simonaq2004@yahoo.it,,,41.90764130000001,12.3932135
"Nido Montessori ""Il Giardino dell’Infanzia"" (Privata)",Via Cardinale Massimi 13,Roma,Roma,00167,3397537977,info@ilgiardinodellinfanzia.it,https://www.ilgiardinodellinfanzia.it,,41.9114118,12.4294608
"Nido Montessori ""L’Astronauta"" (Privata)",Via Gerolamo Belloni 88,Roma,Roma,00191,0698932693,info@lastronauta.it,https://www.lastronauta.it,,41.94271029999999,12.4781873
Nido Montessori (Privato) Magicabula Nirvana,Via Nicola Abbagnano 13,Senigallia,Ancona,60019,0717927365,nirvana-club@libero.it,https://www.nirvanasenigallia.it,,43.7091926,13.2115833
Nido Oasi dei Bimbi,Via Martiri della Libertà,Osimo,Ancona,60027,0719307033,,,,43.4810753,13.4896644
Nido Peter Pan,Via Santa Cecilia 2/a,Osimo,Ancona,60027,0719307034,,,,43.472332,13.512088
Nido Peter Pan e Casa dei bambini San Francesco d'Assisi - (Privato) - Istituto Opera San Francesco,Via Paolo Borsellino 65,Cerignola,Foggia,71042,0885421570,opera.sanfrancesco@virgilio.it,https://scuoleoperasanfrancesco@legalmail.it,,41.2633735,15.9080878
Nido “Europa” SPES (Paritaria),Via Dalmazia ,Curtarolo,Padova,35010,0499620616,info@spes.pd.it,https://www.spes.pd.it,,45.5238818,11.8376503
Nido “La Pisanella” - Cooperativa Sociale San Saturnino (Convenzionato con il Comune e privato),Via della Pisana 974,Roma,Roma,00163,392 9051962,pisanella@coopsansaturnino.org,,,41.8647615,12.3864842
Nido “Pan di zucchero” - Cooperativa Sociale San Saturnino (Privata),Via Tripoli 64,Roma,Roma,00199,0686399024,pandizucchero@coopsansaturnino.org,,,41.9279938,12.5214452
"Nido, Casa dei bambini e Primaria ""Centro Educativo Maria Montessori"" (Privata)",Via Tito Livio 7,Roma,Roma,00136,0635451324,casa.bambini@yahoo.it,,,41.91473,12.4439463
"Nido, Casa dei bambini e Primaria ""Il Giardino di Archimede"" (Privata)",Via di Cori 54,Velletri,Roma,00049,0696155164,info@cooperativaarchimede.it,https://www.cooperativaarchimede.it,,41.6940686,12.8012752
"Nido-Micronido (Privata) e Casa dei bambini (Paritaria) ""Coop. Sociale ONLUS a.r.l.""",Via Monte S. Michele 1,Foggia,Foggia,71100,881580306,casadeibambinifg@gmail.com,,,41.4634638,15.5556972
Papaveri nel grano (gestita da La grande casa) (Privato),Piazza San Martino 7,Bovisio Maciao,MB,,,vincenza.nastasi@lagrandecasa.it,,,45.78551665707591,9.144505804935662
Piccolo gruppo educativo Il sassolino (Privato),Via Aldo Capra 13,San Prospero,PR,43122,0521261164,ilsassolino@unvillaggiopercrescere.it,http://www.villaggiopercrescere.it,Associazione Un Villaggio per Crescere,44.7814793,10.3984791
Piccolo gruppo educativo “Casa dei Piccoli” (Privata),Borgo Pace 8/A,Parma,PR,43121,,priscilla.coruzzi@icloud.com,,,44.8037021,10.334219
"Plesso San Sisto, dipende da IC Mazzini (Statale)",Via della Fonte 5,L&#039;Aquila,AQ,67100,0862315912,AQIC84700G@istruzione.it,http://www.icmazzini.edu.it,,42.353608,13.3678254
Plesso Valussi IC 2 Udine (Statale),"Via Francesco Petrarca, 19",Udine,Udine,33100,0432299029,UDIC842006@istruzione.it,https://2icudine.edu.it/,,46.0625094,13.2431537
Polo Educativo Bergamella 0/6 - Nido (Privato) e casa dei bambini (Paritaria),Via Lovati 37,Sesto San Giovanni,Milano,20099,0247758934,segreteria.polobergamella@gmail.com,https://www.polobergamella.it,,45.5248952,9.2515036
"Primaria ""De Scalzi-Polacco"" (Statale)",Via Ricci 8,Genova,Genova,16122,010564568,GEIC854002@istruzione.it,https://www.maddalena-bertani.gov.it,Dipende da: Istituto Comprensivo Maddalena - Bertani,44.4077376,8.944303099999999
"Primaria ""Don Milani"" (Statale)",Via Feramolino 1,Bergamo,Bergamo,24126,035262122,segreteria@icmuzio.gov.it,https://www.icmuzio.gov.it,"Dipende da I.C. &quot;V. Muzio&quot; Via S. Pietro ai Campi, 1 - 24126 Bergamo",45.6697566,9.6408822
"Primaria ""L. Garzoni"" (Statale)",Via Dante 7,Udine,Udine,33100,3281003169,UDIC842006@istruzione.it,https://www.2.icudine.it,Dipende da: Istituto Comprensivo II ,46.05902,13.23966
"Primaria ""Maria Mazzini"" - I.C. Castelletto (Statale)",Corso Firenze 1,Genova,Genova,16136,0102722375,GEIC853006@istruzione.it,https://www.iccastelletto.edu.it,,44.4156329,8.9329783
"Primaria ""Maria Montessori"" (Statale)",Via Brunamonti 7,Perugia,Perugia,06123,0755724713,PGIC862006@istruzione.it,https://www.istitutocomprensivoperugia2.it,"Dipende da: Istituto Comprensivo Perugia 2 &quot;Foscolo, Ciabatti, S. Erminio&quot;<br>Via Pinturicchio, 64 -  06122 Perugia",43.1142479,12.3947108
Primaria (statale) IC di Susegana,Via Carpeni 7,Susegana ,Treviso,31058,043873256,tvic85200c@istruzione.it,https://www.icsusegana.edu.it,,45.851098,12.245954
Primaria (statale) Plesso Bindoni - IC Primo Martini,Via Rapisardi,Treviso,Treviso,31100,0422300706,tvic870002@istruzione.it,,,45.6811699,12.2491421
Primaria (Statale) plesso De Amicis,Via Marche,Porto Sant&#039;Elpidio,Fermo,63821,0734992287,APIC83600E@istruzione.it,https://www.isc1pse.gov.it  ,"Dipende da:  I.C. “Rita Levi Montalcini”<br>Via Fontanella, 2 - 63821 Porto Sant&#039;Elpidio (FM)",43.2667964,13.7524538
"Primaria - Direzione Didattica ""Alessandro Manzoni"" (Statale)",Corso Svizzera 59,Torino,Torino,10143,011740308,TOEE03900Q@istruzione.it,,,45.081635,7.650163399999999
"Primaria - I.C. ""Rita Levi Montalcini"" - plesso ""Vittorio Alfieri"" (Statale)",Via Palmieri 58,Torino,Torino,10138,0114476070,TOIC88300Q@istruzione.it,,,45.0718366,7.659515600000001
Primaria - I.C. Don Milani (Statale),Via Pietro Mascagni 1,Vimercate,Monza e Brianza,20871,039667522,MIIC8EX007@istruzione.it,https://www.icdonmilanivimercate.gov.it,,45.6003576,9.387562899999999
"Primaria - plesso ""Benedetto Passerini"" - I.C. Manzoni (Statale)",Via San Fedele 7,Sommo (Fraz di Cava Manara),Pavia,27048,,pvic81200b@istruzione.it,,,45.13226170000001,9.085223
Primaria 2° circolo didattico - Plesso di Via Caprera,Via Caprera 1,Capoterra,Cagliari,09012,070729161,caee088006@istruzione.it,https://www.capoterra2.edu.it,,39.17958399175323,8.971691116177025
"Primaria e Scuola secondaria di 1° grado - I.C. ""Maria Montessori"" (Statale)",Via G. Leopardi 8,Chiaravalle,Ancona,60033,0717450821,anic85200T@istruzione.it,https://www.icmontessoriano.it,,43.5985154,13.326063
Primaria e Scuola Secondaria di 1° grado - I.C. “Ilaria Alpi” (Statale),Via Salerno 1,Milano,Milano,20142,0288444696,MIIC8DZ008@istruzione.it,https://www.icilariaalpi.gov.it,,45.43780760000001,9.1485407
Primaria IC Pasquale Tola (Statale),Via Rockefeller,Sassari,,07100,0792845254,ssic855005@istruzione.it,https://www.icpasqualetolass.it,,40.7157827,8.5529922
Primaria Istituto Comprensivo 13 (Statale),Via dell&#039;Angelo Custode 1/3,Bologna,Bologna,40141,051471998,boic85700e@istruzione.it,https://www.ic13bo.edu.it/,,44.4592189,11.3685066
Primaria Istituto Comprensivo M. Minerbì,Via Gagliardi 9,Mogliano Veneto,Treviso,31031,041453924,tvic87700r@istruzione.it,https://www.icminerbi.edu.it,,45.5564393,12.2457631
Primaria Istituto Comprensivo Statale di Casier (Statale),Via Peschiere 16,Dosson di Casier,Treviso,31030 ,0422 3800848 ,info@iccasier.edu.it,https://www.iccasier.edu.it,,45.633138,12.2589911
Primaria Montessori (Statale),Via Podgora 30,Ancona,Ancona,60123,07131798,ANIC81100G@istruzione.it,https://www.augustoscocchera.it,Dipende da: Istituto Comprensivo &quot;Augusto Scocchera&quot;,43.613492,13.5279264
Primaria Montessori e Scuola di Secondaria di Primo Grado - plesso Via Quarenghi (Statale),Via Quarenghi 10,Milano,Milano,20151,0288440104,MIIC8C300P@istruzione.it,https://www.icriccardomassa.mi.it,"Dipende da Istituto Comprensivo &quot;Riccardo Massa&quot;<br>Via Brocchi 5 - 20151 Milano",45.4948199,9.1208274
"Primaria plesso ""Garibaldi"" (Statale)",Via Mondovì 16,Roma,Roma,00183,067017797,RMIC8GE009@istruzione.it,https://www.istitutocomprensivoceneda.it,Dipende da: Istituto Comprensivo &quot;Ceneda&quot;,41.8777096,12.5152164
Primaria “Giosué Carducci” - Istituto Comprensivo 20 (Statale), Via Dante 3,Bologna,Bologna,40125,051347890,BOIC87900B@istruzione.it,https://www.istitutocomprensivo20bologna.gov.it,,44.4869315,11.3546237
Primaria “M. Montessori” - SPES (Paritaria),Via Ognissanti 72,Padova,Padova,35129,0498697748,info@spes.pd.it,https://www.spes.pd.it,,45.4066172,11.8965045
Primaria “Maria Montessori” - Istituto Comprensivo “Enrico Mestica” (Statale),Via dei Sibillini 37,Macerata,Macerata,62100,0733239334,MCIC82800P@istruzione.it,https://www.istitutomesticamacerata.it ,,43.2979896,13.4498182
Rione sud Giardino incantato,Via Venezia 11,Rovereto,TN,38068,0464431163,scuolainfanzia.rionesud@scuole.provincia.tn.it,,,45.88078738057309,11.033447909815433
"Roma - Casa dei bambini ""Forte Antenne"" (Statale)",Via Ponte Salario 140,Roma,Roma,00199,0686214233,RMIC8D7005@istruzione.it,https://www.scuolamediaboccioni.org,Dipende da: Istituto Comprensivo &quot;Via Boccioni&quot;,41.9366555,12.5019637
Scuola dell' infanzia Muzio Gallo,Via 2 Giugno 7,Osimo,Ancona,60027,0719307035,,,,43.4839648,13.4765575
"Scuola dell'Infanzia ""Arcobaleno"" (Statale)",Via Targhini 4045,Calabrina di Cesena,Forlì-Cesena,47521,0547384681,foee021005@istruzione.it,https://www.cesena5circolo.edu.it,"Dipende da Direzione Didattica V Circolo di Cesena via A. Frank 185, Cesena 47521 (FC) ",44.133258,12.2160104
"Scuola dell'infanzia ""Casa dei bambini"" plesso via dell'Acquasanta, dipende da IC Rossini",Via Acquasanta 19,San Marcello,AN,60030,0731267158,anic805008@istruzione.it,https://www.icgioacchinorossinisanmarcello.edu.it,,43.54093011102538,13.176316426936475
"Scuola dell'infanzia ""Frati Cappuccini"", dipende da IC Mazzini - Modugno (Statale)",Piazzetta Frati Cappuccini,Bari,Bari,70122,0805211367,baic847001@istruzione.it,https://www.icmazzinimodugno.edu.it,,41.1194679,16.8665585
"Scuola dell'infanzia ""T. Fiorini"" e Nido ""S. Carlo""",Via Brescia 42,Lumezzane,Brescia,25065,030 872604,smvalle.lumezzane@valtrompianet.it,,,45.6517596,10.2369549
"Scuola dell'infanzia - Istituto Comprensivo Colleferro I ""Margherita Hack"" (Statale) - Plesso Barchiesi",Vicolo Schiavi 7,Colleferro,Roma,00034,0697305269,rmic8c200b@istruzione.it,https://www.comprensivocolleferro1.it,,41.74136,13.00054
Scuola dell'infanzia di Grumello del Piano (Statale),Via Tagliamento 2,Bergamo,BG,24126,035254029,bgic811007@istruzione.it,https://www.icmuzio.edu.it/indirizzo-di-studio/scuola-infanzia/,"Dipende da I.C. &quot;V. Muzio&quot; Via S. Pietro ai Campi, 1 - 24126 Bergamo",45.6660455,9.6389117
Scuola dell'infanzia di Rondò Brenta e Primaria di Viale Diaz dipende da ICS 3 di Bassano del Grappa,Via Veneto,Rondò Brenta,Vicenza,36061,0424501270,viic88100q@istruzione.it,https://www.ic3bellavitis.edu.it,Dipende da ICS 3,45.7594151,11.7121039
Scuola dell'infanzia Diaz dipende da IC E Borrello-F. Fiorentino (Statale),Piazza 5 Dicembre,Lamezia Terme Sambiase,CZ,88046,0968437119,czic868008@istruzione.it,https://www.icborrellofiorentino.edu.it,,38.9666254,16.2767482
Scuola dell'infanzia e primaria IC S. G. Bosco-Benedetto XIII-Poggiorsini (Statale),Corso Vittorio Emanuele 32,Gravina in Puglia,Bari,70024,0803221229,baic88100c@istruzione.it,https://www.icsgboscogravina.edu.it,,40.8163817,16.4166875
Scuola dell'Infanzia e Scuola Primaria Bilingue (Privata) Montessori school,Via S. Pio X 19,Frazione Passarella del Comune di San Donà di Piave,Venezia,30027,0421235591,montessori.veneto.orientale@gmail.com,,,45.5810872,12.6066233
"Scuola dell'infanzia equiparata ""G.B. Chimelli 1""",Viale Petri 2,Pergine Valsugana,TN,38057,0461532422,info@asifchimelli.it,http://www.asifchimelli.eu/strutture.php,,46.06252881541863,11.238387055851518
Scuola dell'Infanzia Fra' Giuseppe (Paritaria),Via Valsugana 80,Villarazzo Castelfranco Veneto,Treviso,31033,0423494202,scuolainfanziavillarazzo@gmail.com,,,45.6800582,11.9054873
"Scuola dell'infanzia ICS n°1 ""L. Milani"" (statale)",Via Puglia 4,Policoro,Matera,75025,0835985908,MTIC831002@istruzione.it,https://www.icmilanipolicoro.edu.it,,40.2100041,16.6734823
Scuola dell'infanzia Le colline dipende da cd Cesena 4 (Statale),Via Paradiso 208,Montiano,FC,47020,0547302708,foee020009@istruzione.it,https://www.dd4cesema.edu.it,,44.0619851,12.29172
Scuola dell'infanzia paritaria M. Montessori gestita da Associazione Insieme donne (Paritaria),Via Bitonto 10,Altamura,BA,70022,0803142233,montessorialtamura@libero.it,https://www.scuolamontessori.it,,40.814696893911226,16.55175967450562
Scuola dell'infanzia Rita Levi Montalcini (Statale),Via Linneo 17,Bergamo,Bergamo,24126,035312233,bgic811007@istruzione.it,https://www.icmuzio.edu.it,"Dipende da I.C. &quot;V. Muzio&quot; Via S. Pietro ai Campi, 1 - 24126 Bergamo",45.67377090000001,9.6642381
Scuola dell'infanzia Vajont (Statale),Viale San Bartolomeo,Vajont,Pordenone,33080,0427 72728,infanziamontessori.vajont@gmail.com,https://icmontereale.edu.it/infanzia-vajont,Dipende da IC “P. D. M. Turoldo” di Montereale Valcellina (PN),46.1462969,12.6973085
Scuola dell'infanzia “La Rotonda dei Bambini” (Paritaria),Via Corsica 16/1,Genova,Genova,16128,010587997,,https://www.coopsaba.it/servizio/la-rotonda-dei-bambini/,,44.3993705,8.9359618
Scuola dell'infanzia “Santa Croce” - Casa dei bambini (Paritaria) “Maria Montessori”,Via dell&#039;Asilo 1,Perugia,Perugia,06122,0755722131,info@montessorisantacroce.it,https://%20www.montessorisantacroce.it,,43.1169011,12.3993755
"Scuola dell’infanzia ""Don A. Piccinelli"" (Paritaria)",Via Don A. Piccinelli 14 - 25030,Orzivecchi,Brescia,25030,0309175269,segrteteria@casadeibambiniorzivecchi.it,,,45.4201862,9.9655089
Scuola dell’Infanzia Alice Sturiale (Statale),Via Pippo Spano 8,San Polo in Chianti,FI,50022,055855232,FIIC826001@istruzione.it,https://www.comprensivogreve.it,"Dipende da: IC Greve in Chianti<br>V.le G. Da Verrazzano, 8 – 50022, Greve in Chianti (FI)",43.671276,11.3613255
Scuola materna Achille Carsana (Paritaria),Via F.lli Valenti 1,Alzano Lombardo,BG,24022,035512022,amministrazione@scuolacarsana.it,,,45.7350147743692,9.731608587890989
"Scuola Montessori ""La casa di Irma"" (Privata)",Via industrie 4,Bedano,Canton Ticino,6930,,,https://www.irmamontessori.ch,,46.046473,8.9226096
"Scuola Primaria ""Beato Stefano Bellesini"" (Statale)",Via Stoppani 3,Trento,Trento,38121,0461823688,segr.ic.tn6@scuole.provincia.tn.it,https://www.ictrento6.it,"Dipende da: I. C. Trento 6 – Corso M. Buonarroti, 50 – 38122 Trento",46.1174495,11.1312937
"Scuola primaria ""Colonnello Lugli"" Santa Croce di Carpi - Istituto comprensivo “Carpi 2” (Statale)",Via Melvin Jones 1,Carpi,Modena,41012,059696581,moic817002@istruzione.it,https://www.iccarpi2.gov.it,,44.7725997,10.8675687
"Scuola primaria ""D. Valeri"" (Statale)",Via Montesanto 24,Padova,Padova,35142,049681211,PDIC887009@istruzione.it,,"Dipende da I.C. &quot;A.Vivaldi&quot; - Via Chieti, 3 - 35142 Padova",45.4056475,11.8532862
"Scuola primaria ""Don Sturzo"" (Statale)",Via Carnovali 73,Urgnano,Bergamo,24059,035/891154,bgic8aa007@istruzione.it,https://icurgnano.edu.it/,Dipende da: IC &quot;B. Colleoni&quot; -  Via dei Bersaglieri 68 – 24059 Urgnano (BG),45.601184,9.690916999999999
"Scuola primaria ""G. Mazzini"", dipende da IC Mazzini - Modugno (Statale)",Via Suppa 7,Bari,Bari,70122,0805211367,BAIC847001@istruzione.it,https://www.icmazzinimodugno.edu.it,,41.119084,16.8673215
"Scuola primaria ""Lidya Plastina Pizzuti"" - I.C. Via Roma - Spirito Santo (Statale)",Via Spirito Santo 1,Cosenza,Cosenza,87100,098426572,csic81200c@istruzione.it,https://www.icspiritosanto.edu.it,,39.2865517,16.2618276
"Scuola Primaria ""T. Olivelli"" (Statale)",Via M. Montessori 4,Salò ,Brescia,25087 ,036541700,bsic8ac00b@istruzione.it,https://www.icsalo.gov.it/,Dipende dall’IC di Salò,45.6027296,10.5156422
"Scuola primaria - I.C. ""Bressanone Milland"" (Statale)",Via Maria Montessori 2,Bressanone ,Bolzano,39042,0472833313,ssp.brixenmilland@schule.suedtirol.it,https://www.snets.it/ssp-brixenmilland,,46.7177048,11.6572436
Scuola primaria - plesso “Anita Garibaldi” (Statale),Via U. Bassi 30,Civitanova Marche,Macerata, 62012,0733772163 ,MCIC83600N@istruzione.it,https://www.iscviaugobassi.gov.it ,Dipende da: Istituto Comprensivo “Via U. Bassi”,43.2977234,13.7239842
Scuola primaria - plesso “Grandi” (Statale),Via  Achille Grandi 1,Tolentino,Macerata,62029,0733968969,istituto@comprensivodonbosco.it,https://www.comprensivodonbosco.it,"Dipende da: Istituto Comprensivo “Don Bosco”<br>Piazza Don Bosco, 11 - 62029 Tolentino (MC)",43.2081345,13.2752312
Scuola primaria - Plesso “RenierMichiel” (Statale),Dorsoduro 1184,Venezia,Venezia,30124,0415225157,VEIC839002@ISTRUZIONE.IT,https://www.icdantealighierivenezia.gov.it,"Dipende da I.C. Dante Alighieri, San Marco 3042 - 30124 Venezia ",45.431841910036795,12.325897098159627
Scuola primaria A. Zadra ( Statale),Largo caduti delle foibe 3,Riva del Garda,Trento,38066 ,0464552170,segr.ic.riva2@scuole.provincia.tn.it,https://www.riva2.it,"Dipende da IC Riva 2 Luigi Pizzini<br>Largo caduti delle foibe, 3 - 38066 Riva del Garda (TN)",45.8942732,10.8485932
Scuola primaria Abramo Massalongo,Via dell&#039;Artigliere 14,Verona,VR,37129,045595678,vric88900p@istruzione.it,https://www.ic18vr.edu.it/,Dipendenti da Istituto Comprensivo 18 Veronetta - Porto di Verona,45.4376369,11.0040332
Scuola Primaria Armando Scivales (Statale),Via Fulvia 55,Brindisi,BR,72100,0831212536,bric81500g@istruzione.it,https://www.iccappuccinibrindisi.edu.it,Dipende da IC Cappuccini Brindisi,40.6334613,17.930424
Scuola primaria di Gorzone - I.C. Darfo 2 (Statale),Via Pennacchio Don Giovan Maria 30 - 25047 Darfo Boario Terme (BS) ,Darfo Boario Terme,Brescia,25047 ,0364538643,primaria.gorzone@icdarfo2.it,https://www.icdarfo2.gov.it,,45.89038,10.17
Scuola primaria di Montelabbatte (Statale),Via Roma 95,Montellabbate,PU,61025,0721499971,psic84100n@istruzione.it,,,43.84727208431442,12.787899240438328
Scuola Primaria e Casa dei Bambini (Statale),Via Libertà 13,Alesso,Udine,33010,0432979411,udic84500n@istruzione.it,https://www.ictrasaghis.gov.it,Dipende da I.C. di Trasaghis ,46.316151,13.0539447
Scuola Primaria e Secondaria di 1° grado - I.C. Statale Arcadia (Statale),Via dell’Arcadia 24,Milano,Milano,20142,0288446990,MIIC8FW002@istruzione.it,https://www.arcadia.gov.it,,45.4173625,9.1722655
Scuola Primaria IC Viale Legnano (Statale),Via Legnano 6,Parabiago,MI,20015,0331551714,miic8fg00t@istruzione.it,https://www.icsvialelegnano.edu.it/,,45.5588933,8.9369663
Scuola primaria ICS Rossella Casini (Statale),Via Sassetti 1,Scandicci,Firenze,50018,0557300732,FIIC83400X@istruzione.it,https://www.icrossellacasini.edu.it,,43.73070329999999,11.1504111
Scuola primaria Istituto Comprensivo Statale VIII Elio Vittorini (Statale),Via Regia Corte 15,Siracusa,Siracusa,91100,093137085,sric829005@istruzione.it,https://www.vittorini.edu.it,,37.0816535,15.28502
Scuola Primaria Montessori Montescudo (Paritaria),Via Santa Maria del Piano di Sotto 58,Montescudo-Monte Colombo,RN,47854,0541984654,ugolinieventi@gmail.com,https://gabriellaugoliniinfanzia.it,,43.9059488,12.5365014
Scuola Primaria plesso Fratte Rosa (Statale),Via Ravignana,Fratte Rosa,Pesaro Urbino,61040,0721777526,PSIC83400E@istruzione.it,https://www.icbinottipergola.it  ,"Dipende da: Istituto Comprensivo Statale “G. Binotti” Viale Martiri della Libertà, 12 – 61045 Pergola (PU)",43.6325866,12.9024644
Scuola primaria Sorriso Montessori (paritaria),Via Prima 6,Brescia,Brescia,25132,3383491073,info@sorrisomontessori.it,,,45.5489215,10.1649955
Scuola primaria “E. De Amicis” – I.C.,Via della Conciliazione 75,Mantova,Mantova,46100,0376326496,mnic83600p@istruzione.it,https://www.icmantova3.gov.it,,45.15253149999999,10.7847858
"Scuola Secondaria di 1 grado ""M. Montessori"" (Statale)",Via Allende,Castelfidardo,Ancona,60022,0717820763,ANIC83100R@istruzione.it,https://icsoprani.gov.it/,Dipende da:  I.C. &quot;Soprani&quot;,43.4540333,13.5358028
Scuola Secondaria di 1° grado Maria Montessori (Paritaria),Via Polano 55,Tavernola,Como,22100,031511937,segreteria.medie@montessori.co.it,https://www.montessori.co.it,Associazione Scuola Montessori,45.8350107,9.064796099999999
"Servizio Educativo Domiciliare ""Le Piccole Menti"" (Privata)",Via Orsaria 16,Udine,Udine,33100,3458114591,piccolementi.udine@gmail.com,,,46.0473445,13.2588551
Sezione Montessori Primaria Scuola Lotto (Statale),Via Carino 1,Ponteranica,Bergamo,24010,035572019,BGIC87700T@istruzione.it,https:// www.icsorisole.gov.it,"Dipende da: IC &quot;A. Lanfranchi&quot; di Sorisole - Via Roccoli, 1/E- 24010 Sorisole (BG)",45.7377939,9.6675556
"Spazio Montessori, uno spazio per la famiglia",Via San Barnaba 48,Milano,Milano,20122,,segreteria@spaziomontessori.com,https://www.spaziomontessori.com,,45.4594986,9.2018608
"Trapani Primaria ""Montessori"" 3° Circolo Didattico Statale ""Umberto di Savoia""Via G. B. Fardella, 285",a G. B. Fardella 285,Trapani,Trapani,91100,0923540376 ,TPEE00300V@istruzione.it,https://www.ddumbertodisavoia.gov.it,,38.0173505,12.5365171
